NORAD_CAT_ID,OBJECT_NAME,OBJECT_TYPE,EPOCH,MEAN_MOTION,ECCENTRICITY,INCLINATION,RA_OF_ASC_NODE,ARG_OF_PERICENTER,MEAN_ANOMALY,BSTAR,MEAN_MOTION_DOT,MEAN_MOTION_DDOT,TLE_LINE0,TLE_LINE1,TLE_LINE2,SEMIMAJOR_AXIS,PERIOD,APOGEE,PERIGEE,DECAYED
49454.0,STARLINK-3160,PAYLOAD,2022-04-16 22:00:01,15.08801611,0.0002983,53.2161,126.1862,23.0782,37.6236,0.0028891,0.00045946,0.0,0 STARLINK-3160,1 49454U 21104AY  22106.91668981  .00045946  00000-0  28891-2 0  9991,2 49454  53.2161 126.1862 0002983  23.0782  37.6236 15.08801611  3579,6917.998000000001,95.44,541.9259999999998,537.799,0.0
49454.0,STARLINK-3160,PAYLOAD,2022-04-17 14:00:01,15.08832394,0.0003312,53.216,123.195,22.7507,61.0409,0.00062395,9.654e-05,0.0,0 STARLINK-3160,1 49454U 21104AY  22107.58334491  .00009654  00000-0  62395-3 0  9995,2 49454  53.2160 123.1950 0003312  22.7507  61.0409 15.08832394  3576,6917.904,95.438,542.06,537.477,0.0
49454.0,STARLINK-3160,PAYLOAD,2022-04-17 22:00:00,15.08816011,0.0003113,53.2163,121.6969,25.4412,69.9479,0.0028792,0.00045805,0.0,0 STARLINK-3160,1 49454U 21104AY  22107.91667824  .00045805  00000-0  28792-2 0  9991,2 49454  53.2163 121.6969 0003113  25.4412  69.9479 15.08816011  3578,6917.954000000002,95.439,541.972,537.665,0.0
49454.0,STARLINK-3160,PAYLOAD,2022-04-18 04:00:00,15.08859383,0.0003227,53.2166,120.5754,26.6681,347.4027,-0.0016161,-0.00025933,0.0,0 STARLINK-3160,1 49454U 21104AY  22108.16667824 -.00025933  00000-0 -16161-2 0  9998,2 49454  53.2166 120.5754 0003227  26.6681 347.4027 15.08859383 25259,6917.821,95.436,541.919,537.4540000000002,0.0
49454.0,STARLINK-3160,PAYLOAD,2022-04-18 14:00:01,15.08849263,0.0003433,53.2165,118.7056,25.208,93.3647,0.00013333,1.834e-05,0.0,0 STARLINK-3160,1 49454U 21104AY  22108.58334491  .00001834  00000-0  13333-3 0  9996,2 49454  53.2165 118.7056 0003433  25.2080  93.3647 15.08849263  3605,6917.852,95.437,542.092,537.342,0.0
49454.0,STARLINK-3160,PAYLOAD,2022-04-18 20:00:01,15.08835523,0.0003233,53.217,117.5818,27.0527,10.2345,0.0018847,0.00029832,0.0,0 STARLINK-3160,1 49454U 21104AY  22108.83334491  .00029832  00000-0  18847-2 0  9996,2 49454  53.2170 117.5818 0003233  27.0527  10.2345 15.08835523 25362,6917.894,95.438,541.996,537.523,0.0
49454.0,STARLINK-3160,PAYLOAD,2022-04-18 22:00:00,15.08839142,0.0003222,53.217,117.2075,27.5189,102.6685,0.0016882,0.00026683,0.0,0 STARLINK-3160,1 49454U 21104AY  22108.91667824  .00026683  00000-0  16882-2 0  9992,2 49454  53.2170 117.2075 0003222  27.5189 102.6685 15.08839142  3563,6917.8830000000025,95.438,541.977,537.519,0.0
49454.0,STARLINK-3160,PAYLOAD,2022-04-19 14:00:01,15.08841861,0.0003462,53.2173,114.2162,26.0021,127.3838,-0.00037079,-6.186e-05,0.0,0 STARLINK-3160,1 49454U 21104AY  22109.58334491 -.00006186  00000-0 -37079-3 0  9997,2 49454  53.2173 114.2162 0003462  26.0021 127.3838 15.08841861 25474,6917.875,95.437,542.135,537.345,0.0
49454.0,STARLINK-3160,PAYLOAD,2022-04-20 12:00:00,15.08847534,0.0003533,53.2179,110.1018,27.0077,68.2735,-0.00013413,-2.424e-05,0.0,0 STARLINK-3160,1 49454U 21104AY  22110.50001157 -.00002424  00000-0 -13413-3 0  9998,2 49454  53.2179 110.1018 0003533  27.0077  68.2735 15.08847534 25614,6917.857,95.437,542.1659999999998,537.278,0.0
49454.0,STARLINK-3160,PAYLOAD,2022-04-20 14:00:01,15.08872854,0.0003475,53.2179,109.7272,27.6943,160.4813,-0.0040424,-0.00064118,0.0,0 STARLINK-3160,1 49454U 21104AY  22110.58334491 -.00064118  00000-0 -40424-2 0  9995,2 49454  53.2179 109.7272 0003475  27.6943 160.4813 15.08872854  3591,6917.78,95.435,542.049,537.241,0.0
49454.0,STARLINK-3160,PAYLOAD,2022-04-20 22:00:00,15.08811067,0.0003239,53.2183,108.2295,29.3431,170.449,0.0024193,0.00038397,0.0,0 STARLINK-3160,1 49454U 21104AY  22110.91667824  .00038397  00000-0  24193-2 0  9994,2 49454  53.2183 108.2295 0003239  29.3431 170.4490 15.08811067  3584,6917.969,95.439,542.075,537.5930000000002,0.0
49454.0,STARLINK-3160,PAYLOAD,2022-04-21 04:00:00,15.08814544,0.0003354,53.2181,107.1098,25.9965,92.4815,-0.00055805,-9.154e-05,0.0,0 STARLINK-3160,1 49454U 21104AY  22111.16667824 -.00009154  00000-0 -55805-3 0  9998,2 49454  53.2181 107.1098 0003354  25.9965  92.4815 15.08814544 25719,6917.958000000001,95.439,542.143,537.503,0.0
49454.0,STARLINK-3160,PAYLOAD,2022-04-21 14:00:01,15.08851941,0.0003448,53.2183,105.2384,28.8818,194.0699,-0.0012981,-0.00020898,0.0,0 STARLINK-3160,1 49454U 21104AY  22111.58334491 -.00020898  00000-0 -12981-2 0  9990,2 49454  53.2183 105.2384 0003448  28.8818 194.0699 15.08851941  3561,6917.844,95.437,542.094,537.3240000000002,0.0
49454.0,STARLINK-3160,PAYLOAD,2022-04-21 22:00:00,15.08830282,0.0003256999999999,53.2185,103.7408,31.9852,202.5696,0.0024144,0.00038339,0.0,0 STARLINK-3160,1 49454U 21104AY  22111.91667824  .00038339  00000-0  24144-2 0  9997,2 49454  53.2185 103.7408 0003257  31.9852 202.5696 15.08830282  3583,6917.91,95.438,542.028,537.5219999999998,0.0
49454.0,STARLINK-3160,PAYLOAD,2022-04-22 04:00:01,15.08862242,0.000339,53.2185,102.6199,31.5495,121.7643,-0.0014152,-0.00022757,0.0,0 STARLINK-3160,1 49454U 21104AY  22112.16668981 -.00022757  00000-0 -14152-2 0  9997,2 49454  53.2185 102.6199 0003390  31.5495 121.7643 15.08862242 25865,6917.812,95.436,542.023,537.332,0.0
49454.0,STARLINK-3160,PAYLOAD,2022-04-22 14:00:01,15.08876089,0.00034,53.2181,100.7496,30.4557,227.3041,-0.0046032,-0.0007289,0.0,0 STARLINK-3160,1 49454U 21104AY  22112.58334491 -.00072890  00000-0 -46032-2 0  9994,2 49454  53.2181 100.7496 0003400  30.4557 227.3041 15.08876089  3606,6917.77,95.435,541.987,537.283,0.0
49454.0,STARLINK-3160,PAYLOAD,2022-04-23 04:00:00,15.08847702,0.0003359,53.2182,98.1314,32.2239,155.8346,-0.0013272,-0.00021356,0.0,0 STARLINK-3160,1 49454U 21104AY  22113.16667824 -.00021356  00000-0 -13272-2 0  9999,2 49454  53.2182  98.1314 0003359  32.2239 155.8346 15.08847702 26019,6917.857,95.437,542.0459999999998,537.398,0.0
49454.0,STARLINK-3160,PAYLOAD,2022-04-23 14:00:01,15.08856105,0.0003357,53.2177,96.2608,31.0683,261.4849,-0.0035908,-0.00057017,0.0,0 STARLINK-3160,1 49454U 21104AY  22113.58334491 -.00057017  00000-0 -35908-2 0  9999,2 49454  53.2177  96.2608 0003357  31.0683 261.4849 15.08856105  3560,6917.831,95.437,542.018,537.374,0.0
49454.0,STARLINK-3160,PAYLOAD,2022-04-23 20:00:01,15.08805071,0.0003205,53.2176,95.1374,33.079,178.1763,0.0029343,0.00046679,0.0,0 STARLINK-3160,1 49454U 21104AY  22113.83334491  .00046679  00000-0  29343-2 0  9993,2 49454  53.2176  95.1374 0003205  33.0790 178.1763 15.08805071 26111,6917.986999999999,95.44,542.069,537.635,0.0
49454.0,STARLINK-3160,PAYLOAD,2022-04-24 12:00:02,15.0884837,0.000343,53.2174,92.1463,32.3376,202.1421,-0.00017155,-3.019e-05,0.0,0 STARLINK-3160,1 49454U 21104AY  22114.50002315 -.00003019  00000-0 -17155-3 0  9997,2 49454  53.2174  92.1463 0003430  32.3376 202.1421 15.08848370 26216,6917.855,95.437,542.0930000000002,537.347,0.0
49454.0,STARLINK-3160,PAYLOAD,2022-04-24 14:00:01,15.08864461,0.0003373,53.2174,91.7718,32.7892,294.5242,-0.0024783,-0.00039546,0.0,0 STARLINK-3160,1 49454U 21104AY  22114.58334491 -.00039546  00000-0 -24783-2 0  9996,2 49454  53.2174  91.7718 0003373  32.7892 294.5242 15.08864461  3598,6917.806,95.436,542.004,537.337,0.0
49454.0,STARLINK-3160,PAYLOAD,2022-04-25 14:00:01,15.08859134,0.0003363,53.2176,87.2824,32.7242,329.3762,-0.0043255,-0.0006852,0.0,0 STARLINK-3160,1 49454U 21104AY  22115.58334491 -.00068520  00000-0 -43255-2 0  9996,2 49454  53.2176  87.2824 0003363  32.7242 329.3762 15.08859134  3579,6917.821999999999,95.436,542.013,537.36,0.0
49454.0,STARLINK-3160,PAYLOAD,2022-04-25 20:00:01,15.08799619,0.0003235,53.2176,86.15899999999998,34.8317,245.971,0.0032114,0.00051139,0.0,0 STARLINK-3160,1 49454U 21104AY  22115.83334491  .00051139  00000-0  32114-2 0  9992,2 49454  53.2176  86.1590 0003235  34.8317 245.9710 15.08799619 26416,6918.004,95.44,542.107,537.631,0.0
49454.0,STARLINK-3160,PAYLOAD,2022-04-25 22:00:00,15.08817162,0.0003246,53.2179,85.7852,35.6713,338.0166,0.0019683,0.00031159,0.0,0 STARLINK-3160,1 49454U 21104AY  22115.91667824  .00031159  00000-0  19683-2 0  9996,2 49454  53.2179  85.7852 0003246  35.6713 338.0166 15.08817162  3627,6917.95,95.439,542.061,537.57,0.0
49454.0,STARLINK-3160,PAYLOAD,2022-04-26 14:00:01,15.08862759,0.0003393,53.218,82.7931,34.4884,2.43,-0.0021912,-0.00035019,0.0,0 STARLINK-3160,1 49454U 21104AY  22116.58335648 -.00035019  00000-0 -21912-2 0  9995,2 49454  53.2180  82.7931 0003393  34.4884   2.4300 15.08862759 26532,6917.811,95.436,542.023,537.3290000000002,0.0
49454.0,STARLINK-3160,PAYLOAD,2022-04-26 22:00:00,15.0884144,0.0003265,53.2184,81.296,36.8765,11.5887,0.00012441,1.692e-05,0.0,0 STARLINK-3160,1 49454U 21104AY  22116.91667824  .00001692  00000-0  12441-3 0  9992,2 49454  53.2184  81.2960 0003265  36.8765  11.5887 15.08841440  3578,6917.876,95.437,542.0,537.482,0.0
49454.0,STARLINK-3160,PAYLOAD,2022-04-27 04:00:00,15.08840237,0.0003434,53.2184,80.1751,34.9146,292.2492,-0.0003074,-5.178e-05,0.0,0 STARLINK-3160,1 49454U 21104AY  22117.16667824 -.00005178  00000-0 -30740-3 0  9997,2 49454  53.2184  80.1751 0003434  34.9146 292.2492 15.08840237 26617,6917.88,95.438,542.12,537.369,0.0
49454.0,STARLINK-3160,PAYLOAD,2022-04-27 14:00:01,15.0884598,0.0003316,53.2186,78.3037,34.7706,36.9481,-0.0026463,-0.0004217,0.0,0 STARLINK-3160,1 49454U 21104AY  22117.58335648 -.00042170  00000-0 -26463-2 0  9998,2 49454  53.2186  78.3037 0003316  34.7706  36.9481 15.08845980  3610,6917.861999999999,95.437,542.021,537.433,0.0
49454.0,STARLINK-3160,PAYLOAD,2022-04-28 04:00:01,15.08849816,0.0003381,53.2189,75.6861,35.5783,326.4281,0.00011979,1.619e-05,0.0,0 STARLINK-3160,1 49454U 21104AY  22118.16668981  .00001619  00000-0  11979-3 0  9990,2 49454  53.2189  75.6861 0003381  35.5783 326.4281 15.08849816 26762,6917.85,95.437,542.054,537.376,0.0
